OBJECT_NAME,OBJECT_ID,EPOCH,MEAN_MOTION,ECCENTRICITY,INCLINATION,RA_OF_ASC_NODE,ARG_OF_PERICENTER,MEAN_ANOMALY,EPHEMERIS_TYPE,CLASSIFICATION_TYPE,NORAD_CAT_ID,ELEMENT_SET_NO,REV_AT_EPOCH,BSTAR,MEAN_MOTION_DOT,MEAN_MOTION_DDOT
LINGQIAO VIDEO A,2015-057B,2026-06-11T17:45:46.755072,14.77384268,.0015334,97.6621,157.8106,290.0848,69.8712,0,U,40959,999,57460,.61059E-4,.386E-5,0
LINGQIAO VIDEO B,2015-057C,2026-06-11T17:12:45.084672,14.77491382,.0015456,97.6586,158.9538,290.0378,69.9169,0,U,40960,999,57464,.50349E-4,.311E-5,0
JILIN-1,2015-057D,2026-06-11T15:58:17.270688,14.78151509,.0015355,97.6507,162.3064,282.8991,77.0505,0,U,40961,999,57479,.11114E-3,.757E-5,0
FOX-1A (AO-85),2015-058D,2026-06-11T15:37:41.183040,14.90943222,.0130118,64.7758,296.1869,58.7517,302.6266,0,U,40967,999,11274,.21466E-3,.2319E-4,0
SINOD-D 1,2015-058E,2026-06-11T15:54:54.076032,14.95871014,.0118713,64.7758,276.2111,55.2811,305.9416,0,U,40968,999,11583,.25567E-3,.3121E-4,0
ELEKTRO-L 2,2015-074A,2026-06-10T23:29:22.228800,1.00271247,.00008138,6.6771,70.6006,270.8986,255.6834,0,U,41105,999,3844,0,-.103E-5,0
DAMPE,2015-078A,2026-06-11T17:49:41.346624,15.30770684,.0013797,97.4561,168.1829,93.9452,266.3367,0,U,41173,999,58371,.38905E-4,.1082E-4,0
ORBCOMM FM114,2015-081A,2026-06-11T08:42:09.406368,14.58851913,.0002127,47.0059,29.5421,183.9472,176.1397,0,U,41179,999,55690,.11441E-3,.369E-5,0
ORBCOMM FM110,2015-081D,2026-06-11T08:25:33.913344,14.58871310,.0002713,47.0030,29.0373,41.4135,318.6956,0,U,41182,999,55677,.15771E-3,.574E-5,0
ORBCOMM FM112,2015-081F,2026-06-11T15:56:04.714080,14.58896043,.0003403,47.0000,296.3651,194.0048,166.0744,0,U,41184,999,55814,.14792E-3,.528E-5,0
ORBCOMM FM113,2015-081G,2026-06-11T15:22:10.242912,14.58852950,.0001968,47.0017,296.8498,202.9654,157.1144,0,U,41185,999,55812,.11367E-3,.366E-5,0
ORBCOMM FM108,2015-081J,2026-06-11T09:32:13.324416,14.58864517,.000265,47.0051,209.5722,198.8914,161.1874,0,U,41187,999,55923,.10383E-3,.319E-5,0
ORBCOMM FM117,2015-081K,2026-06-11T10:21:09.516960,14.58860915,.0003193,46.9998,208.0466,200.5822,159.4936,0,U,41188,999,55928,.1049E-3,.324E-5,0
ORBCOMM FM116,2015-081L,2026-06-11T01:39:59.698944,14.58873761,.00008948,47.0034,299.5479,20.3124,339.7798,0,U,41189,999,55804,.14701744E-3,.524E-5,0
HORYU-4,2016-012D,2026-06-10T02:36:09.976320,15.90526809,.00034613,30.9844,130.8123,226.4757,133.5616,0,U,41340,999,56968,.10043265E-2,.337518E-2,0
ZIYUAN 3-02 (ZY 3-02),2016-033A,2026-06-11T17:32:30.369984,15.21428596,.001142,97.3839,238.6094,311.6091,48.4166,0,U,41556,999,55715,.20668E-3,.4579E-4,0
CARTOSAT-2C,2016-040A,2026-06-11T17:24:48.762432,15.19273000,.0010083,97.4487,222.7789,147.9517,212.2333,0,U,41599,999,55288,.18576E-3,.3854E-4,0
LAPAN-A3,2016-040E,2026-06-11T17:00:11.103840,15.33069928,.0011489,97.1484,159.0342,43.8435,316.3718,0,U,41603,999,55397,.10107E-3,.3159E-4,0
GAOFEN-3,2016-049A,2026-06-11T17:48:17.366688,14.42214346,.000128,98.4014,170.6099,99.4600,260.6735,0,U,41727,999,51786,-.15027E-4,-.93E-6,0
CAS-2T & KS-1Q,2016-066G,2026-06-11T16:47:33.552960,14.44676189,.0342615,98.3821,238.4986,146.0770,216.2856,0,U,41847,999,50400,.22073E-3,.1523E-4,0
YUNHAI-1 01,2016-068A,2026-06-11T17:15:22.480416,14.32701379,.0006387,98.5836,173.7769,56.4041,303.7751,0,U,41857,999,50104,.10051E-3,.23E-5,0
RESOURCESAT-2A,2016-074A,2026-06-11T17:19:19.468704,14.21614765,.0003367,98.7526,236.2707,93.4757,266.6805,0,U,41877,999,49352,.46919E-4,.59E-6,0
TANSAT,2016-081A,2026-06-11T16:43:49.501344,14.59945810,.0019937,98.5365,162.7923,329.9607,30.0447,0,U,41898,999,50382,.39899E-4,.141E-5,0
JILIN-1 03,2017-002B,2026-06-11T16:52:11.578656,15.41444387,.0006111,97.1946,169.8649,171.2373,188.8982,0,U,41914,999,52101,.29949E-3,.12462E-3,0
CARTOSAT-2D,2017-008A,2026-06-11T16:36:18.622080,15.19295719,.0003607,97.4115,222.1006,254.7536,105.3300,0,U,41948,999,51674,.27296E-3,.5694E-4,0
