LINGQIAO VIDEO A        
1 40959U 15057B   26162.74012448  .00000386  00000+0  61059-4 0  9993
2 40959  97.6621 157.8106 0015334 290.0848  69.8712 14.77384268574600
LINGQIAO VIDEO B        
1 40960U 15057C   26162.71718848  .00000311  00000+0  50349-4 0  9997
2 40960  97.6586 158.9538 0015456 290.0378  69.9169 14.77491382574643
JILIN-1                 
1 40961U 15057D   26162.66547767  .00000757  00000+0  11114-3 0  9992
2 40961  97.6507 162.3064 0015355 282.8991  77.0505 14.78151509574793
FOX-1A (AO-85)          
1 40967U 15058D   26162.65117110  .00002319  00000+0  21466-3 0  9990
2 40967  64.7758 296.1869 0130118  58.7517 302.6266 14.90943222112749
SINOD-D 1               
1 40968U 15058E   26162.66312588  .00003121  00000+0  25567-3 0  9996
2 40968  64.7758 276.2111 0118713  55.2811 305.9416 14.95871014115835
ELEKTRO-L 2             
1 41105U 15074A   26161.97872950 -.00000103  00000+0  00000+0 0  9994
2 41105   6.6771  70.6006 0000813 270.8986 255.6834  1.00271247 38447
DAMPE                   
1 41173U 15078A   26162.74283966  .00001082  00000+0  38905-4 0  9998
2 41173  97.4561 168.1829 0013797  93.9452 266.3367 15.30770684583712
ORBCOMM FM114           
1 41179U 15081A   26162.36260887  .00000369  00000+0  11441-3 0  9995
2 41179  47.0059  29.5421 0002127 183.9472 176.1397 14.58851913556902
ORBCOMM FM110           
1 41182U 15081D   26162.35108696  .00000574  00000+0  15771-3 0  9995
2 41182  47.0030  29.0373 0002713  41.4135 318.6956 14.58871310556773
ORBCOMM FM112           
1 41184U 15081F   26162.66394345  .00000528  00000+0  14792-3 0  9990
2 41184  47.0000 296.3651 0003403 194.0048 166.0744 14.58896043558148
ORBCOMM FM113           
1 41185U 15081G   26162.64039633  .00000366  00000+0  11367-3 0  9990
2 41185  47.0017 296.8498 0001968 202.9654 157.1144 14.58852950558129
ORBCOMM FM108           
1 41187U 15081J   26162.39737644  .00000319  00000+0  10383-3 0  9996
2 41187  47.0051 209.5722 0002650 198.8914 161.1874 14.58864517559231
ORBCOMM FM117           
1 41188U 15081K   26162.43136015  .00000324  00000+0  10490-3 0  9992
2 41188  46.9998 208.0466 0003193 200.5822 159.4936 14.58860915559283
ORBCOMM FM116           
1 41189U 15081L   26162.06944096  .00000524  00000+0  14702-3 0  9990
2 41189  47.0034 299.5479 0000894  20.3124 339.7798 14.58873761558049
HORYU-4                 
1 41340U 16012D   26161.10844880  .00337518  00000+0  10043-2 0  9997
2 41340  30.9844 130.8123 0003461 226.4757 133.5616 15.90526809569681
ZIYUAN 3-02 (ZY 3-02)   
1 41556U 16033A   26162.73090706  .00004579  00000+0  20668-3 0  9992
2 41556  97.3839 238.6094 0011420 311.6091  48.4166 15.21428596557158
CARTOSAT-2C             
1 41599U 16040A   26162.72556438  .00003854  00000+0  18576-3 0  9995
2 41599  97.4487 222.7789 0010083 147.9517 212.2333 15.19273000552884
LAPAN-A3                
1 41603U 16040E   26162.70846185  .00003159  00000+0  10107-3 0  9990
2 41603  97.1484 159.0342 0011489  43.8435 316.3718 15.33069928553977
GAOFEN-3                
1 41727U 16049A   26162.74186767 -.00000093  00000+0 -15027-4 0  9996
2 41727  98.4014 170.6099 0001280  99.4600 260.6735 14.42214346517867
CAS-2T & KS-1Q          
1 41847U 16066G   26162.69969390  .00001523  00000+0  22073-3 0  9998
2 41847  98.3821 238.4986 0342615 146.0770 216.2856 14.44676189504002
YUNHAI-1 01             
1 41857U 16068A   26162.71901019  .00000230  00000+0  10051-3 0  9995
2 41857  98.5836 173.7769 0006387  56.4041 303.7751 14.32701379501043
RESOURCESAT-2A          
1 41877U 16074A   26162.72175311  .00000059  00000+0  46919-4 0  9995
2 41877  98.7526 236.2707 0003367  93.4757 266.6805 14.21614765493520
TANSAT                  
1 41898U 16081A   26162.69710071  .00000141  00000+0  39899-4 0  9991
2 41898  98.5365 162.7923 0019937 329.9607  30.0447 14.59945810503825
JILIN-1 03              
1 41914U 17002B   26162.70291179  .00012462  00000+0  29949-3 0  9992
2 41914  97.1946 169.8649 0006111 171.2373 188.8982 15.41444387521017
CARTOSAT-2D             
1 41948U 17008A   26162.69188220  .00005694  00000+0  27296-3 0  9997
2 41948  97.4115 222.1006 0003607 254.7536 105.3300 15.19295719516740
